start=new Date('2022-03-03T00:00:00.000Z').valueOf();
sats=[{"OBJECT_ID":"2020-012W","TLE_LINE2":"2 45198  53.0531 137.4272 0001458  61.1300 298.9835 15.06401578113771","LAUNCH_DATE":"2020-02-17","REF_FRAME":"TEME","OBJECT_NAME":"STARLINK-1154","APOAPSIS":"548.218","DECAY_DATE":null,"COUNTRY_CODE":"US","CENTER_NAME":"EARTH","EPOCH":"2022-03-02T12:47:02.261184","INCLINATION":"53.0531","MEAN_MOTION_DOT":"0.00002984","REV_AT_EPOCH":"11377","SEMIMAJOR_AXIS":"6925.344","MEAN_MOTION":"15.06401578","BSTAR":"0.00021914000000","MEAN_ANOMALY":"298.9835","RCS_SIZE":"LARGE","SITE":"AFETR","TIME_SYSTEM":"UTC","ARG_OF_PERICENTER":"61.1300","CLASSIFICATION_TYPE":"U","GP_ID":"197624346","MEAN_ELEMENT_THEORY":"SGP4","ELEMENT_SET_NO":"999","RA_OF_ASC_NODE":"137.4272","OBJECT_TYPE":"PAYLOAD","ECCENTRICITY":"0.00014580","TLE_LINE1":"1 45198U 20012W   22061.53266506  .00002984  00000-0  21914-3 0  9999","PERIAPSIS":"546.199","PERIOD":"95.592","NORAD_CAT_ID":"45198","MEAN_MOTION_DDOT":"0.0000000000000","FILE":"3341350","EPHEMERIS_TYPE":"0"},{"TLE_LINE1":"1 45199U 20012X   22061.66904220  .00008375  00000-0  58031-3 0  9996","PERIAPSIS":"546.086","ECCENTRICITY":"0.00015930","OBJECT_TYPE":"PAYLOAD","FILE":"3341695","EPHEMERIS_TYPE":"0","MEAN_MOTION_DDOT":"0.0000000000000","PERIOD":"95.592","NORAD_CAT_ID":"45199","TIME_SYSTEM":"UTC","ARG_OF_PERICENTER":"67.3251","SITE":"AFETR","MEAN_ELEMENT_THEORY":"SGP4","ELEMENT_SET_NO":"999","RA_OF_ASC_NODE":"136.8145","CLASSIFICATION_TYPE":"U","GP_ID":"197656599","CENTER_NAME":"EARTH","INCLINATION":"53.0521","EPOCH":"2022-03-02T16:03:25.246080","DECAY_DATE":null,"COUNTRY_CODE":"US","BSTAR":"0.00058031000000","MEAN_MOTION":"15.06408035","SEMIMAJOR_AXIS":"6925.324","RCS_SIZE":"LARGE","MEAN_ANOMALY":"292.7906","REV_AT_EPOCH":"11385","MEAN_MOTION_DOT":"0.00008375","OBJECT_ID":"2020-012X","OBJECT_NAME":"STARLINK-1197","LAUNCH_DATE":"2020-02-17","REF_FRAME":"TEME","APOAPSIS":"548.292","TLE_LINE2":"2 45199  53.0521 136.8145 0001593  67.3251 292.7906 15.06408035113851"},{"TLE_LINE1":"1 45201U 20012Z   22061.61006799 -.00000371  00000-0 -60183-5 0  9992","PERIAPSIS":"546.119","ECCENTRICITY":"0.00015920","OBJECT_TYPE":"PAYLOAD","FILE":"3341695","EPHEMERIS_TYPE":"0","MEAN_MOTION_DDOT":"0.0000000000000","NORAD_CAT_ID":"45201","PERIOD":"95.592","TIME_SYSTEM":"UTC","ARG_OF_PERICENTER":"65.3090","SITE":"AFETR","MEAN_ELEMENT_THEORY":"SGP4","ELEMENT_SET_NO":"999","RA_OF_ASC_NODE":"137.0896","CLASSIFICATION_TYPE":"U","GP_ID":"197657351","CENTER_NAME":"EARTH","INCLINATION":"53.0528","EPOCH":"2022-03-02T14:38:29.874336","DECAY_DATE":null,"COUNTRY_CODE":"US","BSTAR":"-0.00000601830000","MEAN_MOTION":"15.06397352","SEMIMAJOR_AXIS":"6925.357","RCS_SIZE":"LARGE","MEAN_ANOMALY":"294.8065","REV_AT_EPOCH":"11384","MEAN_MOTION_DOT":"-0.00000371","OBJECT_ID":"2020-012Z","OBJECT_NAME":"STARLINK-1199","LAUNCH_DATE":"2020-02-17","REF_FRAME":"TEME","APOAPSIS":"548.324","TLE_LINE2":"2 45201  53.0528 137.0896 0001592  65.3090 294.8065 15.06397352113843"},{"TLE_LINE2":"2 45202  52.9811 148.6127 0000708  65.5070 294.5994 15.10739533113664","APOAPSIS":"534.435","REF_FRAME":"TEME","LAUNCH_DATE":"2020-02-17","OBJECT_NAME":"STARLINK-1203","OBJECT_ID":"2020-012AA","MEAN_MOTION_DOT":"0.00008288","REV_AT_EPOCH":"11366","MEAN_ANOMALY":"294.5994","RCS_SIZE":"LARGE","SEMIMAJOR_AXIS":"6912.080","MEAN_MOTION":"15.10739533","BSTAR":"0.00051105000000","DECAY_DATE":null,"COUNTRY_CODE":"US","EPOCH":"2022-03-02T13:17:37.620096","INCLINATION":"52.9811","CENTER_NAME":"EARTH","GP_ID":"197623598","CLASSIFICATION_TYPE":"U","ELEMENT_SET_NO":"999","RA_OF_ASC_NODE":"148.6127","MEAN_ELEMENT_THEORY":"SGP4","SITE":"AFETR","ARG_OF_PERICENTER":"65.5070","TIME_SYSTEM":"UTC","NORAD_CAT_ID":"45202","PERIOD":"95.318","MEAN_MOTION_DDOT":"0.0000000000000","EPHEMERIS_TYPE":"0","FILE":"3341350","OBJECT_TYPE":"PAYLOAD","PERIAPSIS":"533.456","TLE_LINE1":"1 45202U 20012AA  22061.55390764  .00008288  00000-0  51105-3 0  9999","ECCENTRICITY":"0.00007080"},{"ELEMENT_SET_NO":"999","RA_OF_ASC_NODE":"137.2658","MEAN_ELEMENT_THEORY":"SGP4","GP_ID":"197633594","CLASSIFICATION_TYPE":"U","ARG_OF_PERICENTER":"53.6712","TIME_SYSTEM":"UTC","SITE":"AFETR","EPHEMERIS_TYPE":"0","FILE":"3341503","PERIOD":"95.592","NORAD_CAT_ID":"45204","MEAN_MOTION_DDOT":"0.0000000000000","TLE_LINE1":"1 45204U 20012AC  22061.56951578 -.00000359  00000-0 -52168-5 0  9993","ECCENTRICITY":"0.00016290","PERIAPSIS":"546.068","OBJECT_TYPE":"PAYLOAD","APOAPSIS":"548.325","REF_FRAME":"TEME","LAUNCH_DATE":"2020-02-17","OBJECT_NAME":"STARLINK-1206","TLE_LINE2":"2 45204  53.0561 137.2658 0001629  53.6712 306.4427 15.06405610112908","OBJECT_ID":"2020-012AC","MEAN_ANOMALY":"306.4427","RCS_SIZE":"LARGE","SEMIMAJOR_AXIS":"6925.331","MEAN_MOTION":"15.06405610","BSTAR":"-0.00000521680000","MEAN_MOTION_DOT":"-0.00000359","REV_AT_EPOCH":"11290","EPOCH":"2022-03-02T13:40:06.163392","INCLINATION":"53.0561","CENTER_NAME":"EARTH","DECAY_DATE":null,"COUNTRY_CODE":"US"},{"CENTER_NAME":"EARTH","INCLINATION":"53.0532","EPOCH":"2022-03-02T12:36:24.737184","COUNTRY_CODE":"US","DECAY_DATE":null,"BSTAR":"-0.00011581000000","SEMIMAJOR_AXIS":"6925.391","MEAN_MOTION":"15.06386136","RCS_SIZE":"LARGE","MEAN_ANOMALY":"296.7447","REV_AT_EPOCH":"11385","MEAN_MOTION_DOT":"-0.00002005","OBJECT_ID":"2020-012AD","OBJECT_NAME":"STARLINK-1208","LAUNCH_DATE":"2020-02-17","REF_FRAME":"TEME","APOAPSIS":"548.330","TLE_LINE2":"2 45205  53.0532 137.4533 0001551  63.3701 296.7447 15.06386136113850","ECCENTRICITY":"0.00015510","TLE_LINE1":"1 45205U 20012AD  22061.52528631 -.00002005  00000-0 -11581-3 0  9992","PERIAPSIS":"546.182","OBJECT_TYPE":"PAYLOAD","FILE":"3341350","EPHEMERIS_TYPE":"0","MEAN_MOTION_DDOT":"0.0000000000000","PERIOD":"95.593","NORAD_CAT_ID":"45205","TIME_SYSTEM":"UTC","ARG_OF_PERICENTER":"63.3701","SITE":"AFETR","MEAN_ELEMENT_THEORY":"SGP4","ELEMENT_SET_NO":"999","RA_OF_ASC_NODE":"137.4533","CLASSIFICATION_TYPE":"U","GP_ID":"197625098"},{"ECCENTRICITY":"0.00016280","TLE_LINE1":"1 45206U 20012AE  22061.88467157  .00001836  00000-0  14212-3 0  9990","PERIAPSIS":"546.096","OBJECT_TYPE":"PAYLOAD","FILE":"3341695","EPHEMERIS_TYPE":"0","MEAN_MOTION_DDOT":"0.0000000000000","PERIOD":"95.592","NORAD_CAT_ID":"45206","TIME_SYSTEM":"UTC","ARG_OF_PERICENTER":"66.3599","SITE":"AFETR","MEAN_ELEMENT_THEORY":"SGP4","ELEMENT_SET_NO":"999","RA_OF_ASC_NODE":"115.8577","CLASSIFICATION_TYPE":"U","GP_ID":"197657851","CENTER_NAME":"EARTH","INCLINATION":"53.0522","EPOCH":"2022-03-02T21:13:55.623648","COUNTRY_CODE":"US","DECAY_DATE":null,"BSTAR":"0.00014212000000","SEMIMAJOR_AXIS":"6925.359","MEAN_MOTION":"15.06396754","RCS_SIZE":"LARGE","MEAN_ANOMALY":"293.7561","REV_AT_EPOCH":"11321","MEAN_MOTION_DOT":"0.00001836","OBJECT_ID":"2020-012AE","OBJECT_NAME":"STARLINK-1209","REF_FRAME":"TEME","LAUNCH_DATE":"2020-02-17","APOAPSIS":"548.351","TLE_LINE2":"2 45206  53.0522 115.8577 0001628  66.3599 293.7561 15.06396754113212"},{"DECAY_DATE":null,"COUNTRY_CODE":"US","CENTER_NAME":"EARTH","EPOCH":"2022-03-02T14:43:47.383968","INCLINATION":"53.0535","MEAN_MOTION_DOT":"0.00005095","REV_AT_EPOCH":"11384","SEMIMAJOR_AXIS":"6925.284","MEAN_MOTION":"15.06421205","BSTAR":"0.00036047000000","MEAN_ANOMALY":"299.2022","RCS_SIZE":"LARGE","OBJECT_ID":"2020-012AF","TLE_LINE2":"2 45207  53.0535 137.0591 0001319  60.9099 299.2022 15.06421205113843","LAUNCH_DATE":"2020-02-17","REF_FRAME":"TEME","OBJECT_NAME":"STARLINK-1210","APOAPSIS":"548.062","OBJECT_TYPE":"PAYLOAD","ECCENTRICITY":"0.00013190","TLE_LINE1":"1 45207U 20012AF  22061.61374287  .00005095  00000-0  36047-3 0  9994","PERIAPSIS":"546.235","PERIOD":"95.591","NORAD_CAT_ID":"45207","MEAN_MOTION_DDOT":"0.0000000000000","FILE":"3341695","EPHEMERIS_TYPE":"0","SITE":"AFETR","TIME_SYSTEM":"UTC","ARG_OF_PERICENTER":"60.9099","CLASSIFICATION_TYPE":"U","GP_ID":"197658102","MEAN_ELEMENT_THEORY":"SGP4","ELEMENT_SET_NO":"999","RA_OF_ASC_NODE":"137.0591"},{"TLE_LINE2":"2 45208  53.0015 135.7092 0001412  67.0124 293.1013 15.05590949113797","REF_FRAME":"TEME","LAUNCH_DATE":"2020-02-17","OBJECT_NAME":"STARLINK-1211","APOAPSIS":"550.673","OBJECT_ID":"2020-012AG","MEAN_MOTION_DOT":"0.00001604","REV_AT_EPOCH":"11379","SEMIMAJOR_AXIS":"6927.829","MEAN_MOTION":"15.05590949","BSTAR":"0.00012916000000","MEAN_ANOMALY":"293.1013","RCS_SIZE":"LARGE","DECAY_DATE":null,"COUNTRY_CODE":"US","CENTER_NAME":"EARTH","EPOCH":"2022-03-02T21:55:46.649568","INCLINATION":"53.0015","CLASSIFICATION_TYPE":"U","GP_ID":"197656849","MEAN_ELEMENT_THEORY":"SGP4","ELEMENT_SET_NO":"999","RA_OF_ASC_NODE":"135.7092","SITE":"AFETR","TIME_SYSTEM":"UTC","ARG_OF_PERICENTER":"67.0124","NORAD_CAT_ID":"45208","PERIOD":"95.644","MEAN_MOTION_DDOT":"0.0000000000000","FILE":"3341695","EPHEMERIS_TYPE":"0","OBJECT_TYPE":"PAYLOAD","TLE_LINE1":"1 45208U 20012AG  22061.91373437  .00001604  00000-0  12916-3 0  9995","ECCENTRICITY":"0.00014120","PERIAPSIS":"548.716"},{"RCS_SIZE":"LARGE","MEAN_ANOMALY":"63.0322","BSTAR":"0.00013227000000","SEMIMAJOR_AXIS":"6717.799","MEAN_MOTION":"15.76747852","REV_AT_EPOCH":"11545","MEAN_MOTION_DOT":"0.00021094","INCLINATION":"53.0506","EPOCH":"2022-03-02T13:56:12.551712","CENTER_NAME":"EARTH","COUNTRY_CODE":"US","DECAY_DATE":null,"APOAPSIS":"344.660","OBJECT_NAME":"STARLINK-1218","LAUNCH_DATE":"2020-02-17","REF_FRAME":"TEME","TLE_LINE2":"2 45209  53.0506  17.9710 0007437 296.9938  63.0322 15.76747852115457","OBJECT_ID":"2020-012AH","EPHEMERIS_TYPE":"0","FILE":"3341350","MEAN_MOTION_DDOT":"0.0000000000000","PERIOD":"91.327","NORAD_CAT_ID":"45209","TLE_LINE1":"1 45209U 20012AH  22061.58070083  .00021094  00000-0  13227-3 0  9991","ECCENTRICITY":"0.00074370","PERIAPSIS":"334.668","OBJECT_TYPE":"PAYLOAD","ELEMENT_SET_NO":"999","RA_OF_ASC_NODE":"17.9710","MEAN_ELEMENT_THEORY":"SGP4","GP_ID":"197624600","CLASSIFICATION_TYPE":"U","ARG_OF_PERICENTER":"296.9938","TIME_SYSTEM":"UTC","SITE":"AFETR"}];
